{
  "norad_id": 44744,
  "name": "STARLINK-1039",
  "history": [
    {
      "epoch": "2026-03-28T09:20:54.377664Z",
      "apogee_km": 496.9821834826289,
      "perigee_km": 495.5048791064528,
      "latitude_deg": -2.333324014581942e-05,
      "longitude_deg": 163.0038465079228,
      "height_km": 496.6134333437285,
      "semi_major_axis_km": 6874.380531294541,
      "eccentricity": 0.00010745,
      "inclination_deg": 53.0588,
      "raan_deg": 129.0411,
      "arg_perigee_deg": 314.432,
      "mean_anomaly_deg": 45.6588,
      "mean_motion_rev_day": 15.23184139
    },
    {
      "epoch": "2026-03-30T05:26:21.933600Z",
      "apogee_km": 496.5412106843187,
      "perigee_km": 494.95293103090717,
      "latitude_deg": 4.383474145317783e-05,
      "longitude_deg": -148.63577165712184,
      "height_km": 495.9482922892312,
      "semi_major_axis_km": 6873.884070857613,
      "eccentricity": 0.00011553,
      "inclination_deg": 53.059,
      "raan_deg": 120.577,
      "arg_perigee_deg": 329.7005,
      "mean_anomaly_deg": 30.3925,
      "mean_motion_rev_day": 15.23349158
    },
    {
      "epoch": "2026-03-30T07:00:50.435424Z",
      "apogee_km": 496.50079681587795,
      "perigee_km": 494.94867883547795,
      "latitude_deg": 5.731372936550165e-05,
      "longitude_deg": -172.62128496231747,
      "height_km": 495.9303165744454,
      "semi_major_axis_km": 6873.861737825678,
      "eccentricity": 0.0001129,
      "inclination_deg": 53.059,
      "raan_deg": 120.2749,
      "arg_perigee_deg": 331.3831,
      "mean_anomaly_deg": 28.7104,
      "mean_motion_rev_day": 15.23356582
    },
    {
      "epoch": "2026-03-31T11:21:18.434592Z",
      "apogee_km": 496.068574741631,
      "perigee_km": 494.57978305028246,
      "latitude_deg": -8.159401919014954e-06,
      "longitude_deg": 115.65477629403773,
      "height_km": 495.5045503102797,
      "semi_major_axis_km": 6873.461178895956,
      "eccentricity": 0.0001083,
      "inclination_deg": 53.0589,
      "raan_deg": 114.8316,
      "arg_perigee_deg": 341.5875,
      "mean_anomaly_deg": 18.5082,
      "mean_motion_rev_day": 15.23489747
    },
    {
      "epoch": "2026-04-01T07:49:19.823232Z",
      "apogee_km": 495.8667232219814,
      "perigee_km": 494.1924198451552,
      "latitude_deg": 7.950460293631427e-06,
      "longitude_deg": 163.87995150806552,
      "height_km": 495.096563992126,
      "semi_major_axis_km": 6873.166571533568,
      "eccentricity": 0.0001218,
      "inclination_deg": 53.0591,
      "raan_deg": 110.9031,
      "arg_perigee_deg": 348.2528,
      "mean_anomaly_deg": 11.844,
      "mean_motion_rev_day": 15.23587701
    },
    {
      "epoch": "2026-04-02T07:26:11.452992Z",
      "apogee_km": 495.5283549574624,
      "perigee_km": 493.862242951549,
      "latitude_deg": 2.6812200218821462e-05,
      "longitude_deg": 164.1591361107879,
      "height_km": 494.7512540496058,
      "semi_major_axis_km": 6872.832298954505,
      "eccentricity": 0.00012121,
      "inclination_deg": 53.0597,
      "raan_deg": 106.3672,
      "arg_perigee_deg": 355.5807,
      "mean_anomaly_deg": 4.5179,
      "mean_motion_rev_day": 15.23698856
    },
    {
      "epoch": "2026-04-03T10:11:51.156096Z",
      "apogee_km": 495.202544171887,
      "perigee_km": 493.5109485611565,
      "latitude_deg": 1.8887152905513972e-05,
      "longitude_deg": 116.50286464100218,
      "height_km": 494.3984689844792,
      "semi_major_axis_km": 6872.493746366522,
      "eccentricity": 0.00012307,
      "inclination_deg": 53.0595,
      "raan_deg": 101.2254,
      "arg_perigee_deg": 2.9893,
      "mean_anomaly_deg": 357.1111,
      "mean_motion_rev_day": 15.23811448
    },
    {
      "epoch": "2026-04-04T06:39:35.802144Z",
      "apogee_km": 494.8080319245464,
      "perigee_km": 493.02968130997215,
      "latitude_deg": -1.4903787646582694e-05,
      "longitude_deg": 164.7960528904417,
      "height_km": 493.92484143410235,
      "semi_major_axis_km": 6872.055856617259,
      "eccentricity": 0.00012939,
      "inclination_deg": 53.061,
      "raan_deg": 97.295,
      "arg_perigee_deg": 8.0259,
      "mean_anomaly_deg": 352.0758,
      "mean_motion_rev_day": 15.23957097
    },
    {
      "epoch": "2026-04-05T06:16:05.690208Z",
      "apogee_km": 494.3849233323381,
      "perigee_km": 492.6024223358054,
      "latitude_deg": -2.465682293921774e-05,
      "longitude_deg": 165.16605232260966,
      "height_km": 493.5264429306344,
      "semi_major_axis_km": 6871.630672834071,
      "eccentricity": 0.0001297,
      "inclination_deg": 53.0619,
      "raan_deg": 92.7591,
      "arg_perigee_deg": 16.7144,
      "mean_anomaly_deg": 343.3895,
      "mean_motion_rev_day": 15.24098542
    },
    {
      "epoch": "2026-04-05T17:17:04.874784Z",
      "apogee_km": 494.1887110107091,
      "perigee_km": 492.3911457262475,
      "latitude_deg": 1.281192275100886e-05,
      "longitude_deg": -2.6498520050953127,
      "height_km": 493.36988761858186,
      "semi_major_axis_km": 6871.426928368478,
      "eccentricity": 0.0001308,
      "inclination_deg": 53.0631,
      "raan_deg": 90.6422,
      "arg_perigee_deg": 26.2207,
      "mean_anomaly_deg": 333.8856,
      "mean_motion_rev_day": 15.24166329
    },
    {
      "epoch": "2026-04-05T17:17:04.875648Z",
      "apogee_km": 494.1885048679005,
      "perigee_km": 492.39135186905605,
      "latitude_deg": 1.402987090914615e-05,
      "longitude_deg": -2.6498547043155862,
      "height_km": 493.37007254587473,
      "semi_major_axis_km": 6871.426928368478,
      "eccentricity": 0.00013077,
      "inclination_deg": 53.0631,
      "raan_deg": 90.6422,
      "arg_perigee_deg": 26.2207,
      "mean_anomaly_deg": 333.8856,
      "mean_motion_rev_day": 15.24166329
    },
    {
      "epoch": "2026-04-07T08:37:31.246752Z",
      "apogee_km": 493.4232550653687,
      "perigee_km": 491.76521020430846,
      "latitude_deg": 4.049156188152775e-05,
      "longitude_deg": 118.06121800385998,
      "height_km": 492.8162117382524,
      "semi_major_axis_km": 6870.731232634838,
      "eccentricity": 0.00012066,
      "inclination_deg": 53.0633,
      "raan_deg": 83.0788,
      "arg_perigee_deg": 36.7571,
      "mean_anomaly_deg": 323.3509,
      "mean_motion_rev_day": 15.24397829
    },
    {
      "epoch": "2026-04-07T16:29:34.289088Z",
      "apogee_km": 493.38524447369855,
      "perigee_km": 491.64009945701946,
      "latitude_deg": -1.527876762072654e-06,
      "longitude_deg": -1.7870980010608464,
      "height_km": 492.7049988456046,
      "semi_major_axis_km": 6870.649671965359,
      "eccentricity": 0.000127,
      "inclination_deg": 53.063,
      "raan_deg": 81.5663,
      "arg_perigee_deg": 37.3366,
      "mean_anomaly_deg": 322.7719,
      "mean_motion_rev_day": 15.24424973
    },
    {
      "epoch": "2026-04-08T08:13:38.441856Z",
      "apogee_km": 493.17387021289414,
      "perigee_km": 491.45337196836135,
      "latitude_deg": 6.250739221257122e-05,
      "longitude_deg": 118.52385228466542,
      "height_km": 492.5851921331271,
      "semi_major_axis_km": 6870.4506210906275,
      "eccentricity": 0.00012521,
      "inclination_deg": 53.0641,
      "raan_deg": 78.5407,
      "arg_perigee_deg": 44.4099,
      "mean_anomaly_deg": 315.6999,
      "mean_motion_rev_day": 15.24491222
    },
    {
      "epoch": "2026-04-09T15:41:40.135200Z",
      "apogee_km": 492.925922175521,
      "perigee_km": 491.0421349894841,
      "latitude_deg": -6.165009591631914e-05,
      "longitude_deg": -0.8264094726714151,
      "height_km": 492.1912710300449,
      "semi_major_axis_km": 6870.121028582503,
      "eccentricity": 0.0001371,
      "inclination_deg": 53.0634,
      "raan_deg": 72.4899,
      "arg_perigee_deg": 43.8952,
      "mean_anomaly_deg": 316.2153,
      "mean_motion_rev_day": 15.24600929
    },
    {
      "epoch": "2026-04-10T04:16:50.383488Z",
      "apogee_km": 492.7765093702865,
      "perigee_km": 490.8839707949892,
      "latitude_deg": 2.411814940826162e-07,
      "longitude_deg": 167.44283812078325,
      "height_km": 492.0818168194974,
      "semi_major_axis_km": 6869.9672400826375,
      "eccentricity": 0.00013774,
      "inclination_deg": 53.0636,
      "raan_deg": 70.0687,
      "arg_perigee_deg": 47.9053,
      "mean_anomaly_deg": 312.2061,
      "mean_motion_rev_day": 15.24652123
    },
    {
      "epoch": "2026-04-11T21:11:00.019104Z",
      "apogee_km": 492.4168660438054,
      "perigee_km": 490.4755218331993,
      "latitude_deg": 5.745785633951592e-05,
      "longitude_deg": -95.64518407142619,
      "height_km": 491.764289561054,
      "semi_major_axis_km": 6869.5831939385025,
      "eccentricity": 0.0001413,
      "inclination_deg": 53.064,
      "raan_deg": 62.2006,
      "arg_perigee_deg": 54.2048,
      "mean_anomaly_deg": 305.9081,
      "mean_motion_rev_day": 15.24779979
    },
    {
      "epoch": "2026-04-13T06:13:03.403488Z",
      "apogee_km": 492.22030159539645,
      "perigee_km": 490.0983759563487,
      "latitude_deg": -1.649995452617033e-05,
      "longitude_deg": 121.12868909081989,
      "height_km": 491.4838926486005,
      "semi_major_axis_km": 6869.296338775873,
      "eccentricity": 0.00015445,
      "inclination_deg": 53.0644,
      "raan_deg": 55.8453,
      "arg_perigee_deg": 58.0688,
      "mean_anomaly_deg": 302.0459,
      "mean_motion_rev_day": 15.2487549
    },
    {
      "epoch": "2026-04-14T19:58:07.986432Z",
      "apogee_km": 491.9867258603026,
      "perigee_km": 489.8367136110255,
      "latitude_deg": 1.7106368018528953e-05,
      "longitude_deg": -93.9564693847561,
      "height_km": 491.3862994823365,
      "semi_major_axis_km": 6869.048719735664,
      "eccentricity": 0.0001565,
      "inclination_deg": 53.0642,
      "raan_deg": 48.5796,
      "arg_perigee_deg": 67.5262,
      "mean_anomaly_deg": 292.5901,
      "mean_motion_rev_day": 15.24957945
    }
  ]
}